ORBCOMM FM05            
1 25117U 97084F   24329.89529644  .00004811  00000+0  14197-2 0  9998
2 25117  45.0144 267.9672 0002792 300.8641  59.1935 14.44518731411058
ORBCOMM FM06            
1 25118U 97084G   24330.13294549  .00005131  00000+0  15060-2 0  9997
2 25118  45.0136 266.8262 0002123 319.2319 124.9985 14.44688652412021
ORBCOMM FM07            
1 25119U 97084H   24329.29226716  .00004420  00000+0  13070-2 0  9993
2 25119  45.0132 271.5399 0003266 286.2910  73.7582 14.44546923411871
ORBCOMM FM03            
1 25158U 98007B   24330.16087628  .00004013  00000+0  14778-2 0  9991
2 25158 107.9662  76.7349 0048809 246.2012 113.4005 14.33435286394937
ORBCOMM FM04            
1 25159U 98007C   24329.83316710  .00003356  00000+0  12401-2 0  9991
2 25159 107.9647  79.1398 0044462 244.4533 115.2006 14.33702895394924
ORBCOMM FM17            
1 25413U 98046A   24330.09916958  .00002593  00000+0  96567-3 0  9995
2 25413  44.9923 140.2374 0002438 244.2700 115.7895 14.34238198374031
ORBCOMM FM18            
1 25414U 98046B   24329.89768583  .00003847  00000+0  13226-2 0  9994
2 25414  44.9931  63.8141 0004657 302.8876  57.1524 14.37377317374840
ORBCOMM FM19            
1 25415U 98046C   24329.90777990  .00003893  00000+0  13425-2 0  9991
2 25415  44.9943  65.4505 0003901 289.6749 177.5272 14.37203514374808
