<?xml version="1.0" encoding="UTF-8"?>
<ndm xmlns:xsi="http://www.w3.org/2001/XMLSchema-instance" xsi:noNamespaceSchemaLocation="https://sanaregistry.org/r/ndmxml_unqualified/ndmxml-2.0.0-master-2.0.xsd">
<omm id="CCSDS_OMM_VERS" version="2.0">
<header><CREATION_DATE/><ORIGINATOR/></header><body><segment><metadata><OBJECT_NAME>ORBCOMM FM05</OBJECT_NAME><OBJECT_ID>1997-084F</OBJECT_ID><CENTER_NAME>EARTH</CENTER_NAME><REF_FRAME>TEME</REF_FRAME><TIME_SYSTEM>UTC</TIME_SYSTEM><MEAN_ELEMENT_THEORY>SGP4</MEAN_ELEMENT_THEORY></metadata><data><meanElements><EPOCH>2024-11-24T21:29:13.612416</EPOCH><MEAN_MOTION>14.44518731</MEAN_MOTION><ECCENTRICITY>.0002792</ECCENTRICITY><INCLINATION>45.0144</INCLINATION><RA_OF_ASC_NODE>267.9672</RA_OF_ASC_NODE><ARG_OF_PERICENTER>300.8641</ARG_OF_PERICENTER><MEAN_ANOMALY>59.1935</MEAN_ANOMALY></meanElements><tleParameters><EPHEMERIS_TYPE>0</EPHEMERIS_TYPE><CLASSIFICATION_TYPE>U</CLASSIFICATION_TYPE><NORAD_CAT_ID>25117</NORAD_CAT_ID><ELEMENT_SET_NO>999</ELEMENT_SET_NO><REV_AT_EPOCH>41105</REV_AT_EPOCH><BSTAR>.14197E-2</BSTAR><MEAN_MOTION_DOT>.4811E-4</MEAN_MOTION_DOT><MEAN_MOTION_DDOT>0</MEAN_MOTION_DDOT></tleParameters></data></segment></body></omm>
<omm id="CCSDS_OMM_VERS" version="2.0">
<header><CREATION_DATE/><ORIGINATOR/></header><body><segment><metadata><OBJECT_NAME>ORBCOMM FM06</OBJECT_NAME><OBJECT_ID>1997-084G</OBJECT_ID><CENTER_NAME>EARTH</CENTER_NAME><REF_FRAME>TEME</REF_FRAME><TIME_SYSTEM>UTC</TIME_SYSTEM><MEAN_ELEMENT_THEORY>SGP4</MEAN_ELEMENT_THEORY></metadata><data><meanElements><EPOCH>2024-11-25T03:11:26.490336</EPOCH><MEAN_MOTION>14.44688652</MEAN_MOTION><ECCENTRICITY>.0002123</ECCENTRICITY><INCLINATION>45.0136</INCLINATION><RA_OF_ASC_NODE>266.8262</RA_OF_ASC_NODE><ARG_OF_PERICENTER>319.2319</ARG_OF_PERICENTER><MEAN_ANOMALY>124.9985</MEAN_ANOMALY></meanElements><tleParameters><EPHEMERIS_TYPE>0</EPHEMERIS_TYPE><CLASSIFICATION_TYPE>U</CLASSIFICATION_TYPE><NORAD_CAT_ID>25118</NORAD_CAT_ID><ELEMENT_SET_NO>999</ELEMENT_SET_NO><REV_AT_EPOCH>41202</REV_AT_EPOCH><BSTAR>.1506E-2</BSTAR><MEAN_MOTION_DOT>.5131E-4</MEAN_MOTION_DOT><MEAN_MOTION_DDOT>0</MEAN_MOTION_DDOT></tleParameters></data></segment></body></omm>
<omm id="CCSDS_OMM_VERS" version="2.0">
<header><CREATION_DATE/><ORIGINATOR/></header><body><segment><metadata><OBJECT_NAME>ORBCOMM FM07</OBJECT_NAME><OBJECT_ID>1997-084H</OBJECT_ID><CENTER_NAME>EARTH</CENTER_NAME><REF_FRAME>TEME</REF_FRAME><TIME_SYSTEM>UTC</TIME_SYSTEM><MEAN_ELEMENT_THEORY>SGP4</MEAN_ELEMENT_THEORY></metadata><data><meanElements><EPOCH>2024-11-24T07:00:51.882624</EPOCH><MEAN_MOTION>14.44546923</MEAN_MOTION><ECCENTRICITY>.0003266</ECCENTRICITY><INCLINATION>45.0132</INCLINATION><RA_OF_ASC_NODE>271.5399</RA_OF_ASC_NODE><ARG_OF_PERICENTER>286.2910</ARG_OF_PERICENTER><MEAN_ANOMALY>73.7582</MEAN_ANOMALY></meanElements><tleParameters><EPHEMERIS_TYPE>0</EPHEMERIS_TYPE><CLASSIFICATION_TYPE>U</CLASSIFICATION_TYPE><NORAD_CAT_ID>25119</NORAD_CAT_ID><ELEMENT_SET_NO>999</ELEMENT_SET_NO><REV_AT_EPOCH>41187</REV_AT_EPOCH><BSTAR>.1307E-2</BSTAR><MEAN_MOTION_DOT>.442E-4</MEAN_MOTION_DOT><MEAN_MOTION_DDOT>0</MEAN_MOTION_DDOT></tleParameters></data></segment></body></omm>
<omm id="CCSDS_OMM_VERS" version="2.0">
<header><CREATION_DATE/><ORIGINATOR/></header><body><segment><metadata><OBJECT_NAME>ORBCOMM FM03</OBJECT_NAME><OBJECT_ID>1998-007B</OBJECT_ID><CENTER_NAME>EARTH</CENTER_NAME><REF_FRAME>TEME</REF_FRAME><TIME_SYSTEM>UTC</TIME_SYSTEM><MEAN_ELEMENT_THEORY>SGP4</MEAN_ELEMENT_THEORY></metadata><data><meanElements><EPOCH>2024-11-25T03:51:39.710592</EPOCH><MEAN_MOTION>14.33435286</MEAN_MOTION><ECCENTRICITY>.0048809</ECCENTRICITY><INCLINATION>107.9662</INCLINATION><RA_OF_ASC_NODE>76.7349</RA_OF_ASC_NODE><ARG_OF_PERICENTER>246.2012</ARG_OF_PERICENTER><MEAN_ANOMALY>113.4005</MEAN_ANOMALY></meanElements><tleParameters><EPHEMERIS_TYPE>0</EPHEMERIS_TYPE><CLASSIFICATION_TYPE>U</CLASSIFICATION_TYPE><NORAD_CAT_ID>25158</NORAD_CAT_ID><ELEMENT_SET_NO>999</ELEMENT_SET_NO><REV_AT_EPOCH>39493</REV_AT_EPOCH><BSTAR>.14778E-2</BSTAR><MEAN_MOTION_DOT>.4013E-4</MEAN_MOTION_DOT><MEAN_MOTION_DDOT>0</MEAN_MOTION_DDOT></tleParameters></data></segment></body></omm>
<omm id="CCSDS_OMM_VERS" version="2.0">
<header><CREATION_DATE/><ORIGINATOR/></header><body><segment><metadata><OBJECT_NAME>ORBCOMM FM04</OBJECT_NAME><OBJECT_ID>1998-007C</OBJECT_ID><CENTER_NAME>EARTH</CENTER_NAME><REF_FRAME>TEME</REF_FRAME><TIME_SYSTEM>UTC</TIME_SYSTEM><MEAN_ELEMENT_THEORY>SGP4</MEAN_ELEMENT_THEORY></metadata><data><meanElements><EPOCH>2024-11-24T19:59:45.637440</EPOCH><MEAN_MOTION>14.33702895</MEAN_MOTION><ECCENTRICITY>.0044462</ECCENTRICITY><INCLINATION>107.9647</INCLINATION><RA_OF_ASC_NODE>79.1398</RA_OF_ASC_NODE><ARG_OF_PERICENTER>244.4533</ARG_OF_PERICENTER><MEAN_ANOMALY>115.2006</MEAN_ANOMALY></meanElements><tleParameters><EPHEMERIS_TYPE>0</EPHEMERIS_TYPE><CLASSIFICATION_TYPE>U</CLASSIFICATION_TYPE><NORAD_CAT_ID>25159</NORAD_CAT_ID><ELEMENT_SET_NO>999</ELEMENT_SET_NO><REV_AT_EPOCH>39492</REV_AT_EPOCH><BSTAR>.12401E-2</BSTAR><MEAN_MOTION_DOT>.3356E-4</MEAN_MOTION_DOT><MEAN_MOTION_DDOT>0</MEAN_MOTION_DDOT></tleParameters></data></segment></body></omm>
<omm id="CCSDS_OMM_VERS" version="2.0">
<header><CREATION_DATE/><ORIGINATOR/></header><body><segment><metadata><OBJECT_NAME>ORBCOMM FM17</OBJECT_NAME><OBJECT_ID>1998-046A</OBJECT_ID><CENTER_NAME>EARTH</CENTER_NAME><REF_FRAME>TEME</REF_FRAME><TIME_SYSTEM>UTC</TIME_SYSTEM><MEAN_ELEMENT_THEORY>SGP4</MEAN_ELEMENT_THEORY></metadata><data><meanElements><EPOCH>2024-11-25T02:22:48.251712</EPOCH><MEAN_MOTION>14.34238198</MEAN_MOTION><ECCENTRICITY>.0002438</ECCENTRICITY><INCLINATION>44.9923</INCLINATION><RA_OF_ASC_NODE>140.2374</RA_OF_ASC_NODE><ARG_OF_PERICENTER>244.2700</ARG_OF_PERICENTER><MEAN_ANOMALY>115.7895</MEAN_ANOMALY></meanElements><tleParameters><EPHEMERIS_TYPE>0</EPHEMERIS_TYPE><CLASSIFICATION_TYPE>U</CLASSIFICATION_TYPE><NORAD_CAT_ID>25413</NORAD_CAT_ID><ELEMENT_SET_NO>999</ELEMENT_SET_NO><REV_AT_EPOCH>37403</REV_AT_EPOCH><BSTAR>.96567E-3</BSTAR><MEAN_MOTION_DOT>.2593E-4</MEAN_MOTION_DOT><MEAN_MOTION_DDOT>0</MEAN_MOTION_DDOT></tleParameters></data></segment></body></omm>
<omm id="CCSDS_OMM_VERS" version="2.0">
<header><CREATION_DATE/><ORIGINATOR/></header><body><segment><metadata><OBJECT_NAME>ORBCOMM FM18</OBJECT_NAME><OBJECT_ID>1998-046B</OBJECT_ID><CENTER_NAME>EARTH</CENTER_NAME><REF_FRAME>TEME</REF_FRAME><TIME_SYSTEM>UTC</TIME_SYSTEM><MEAN_ELEMENT_THEORY>SGP4</MEAN_ELEMENT_THEORY></metadata><data><meanElements><EPOCH>2024-11-24T21:32:40.055712</EPOCH><MEAN_MOTION>14.37377317</MEAN_MOTION><ECCENTRICITY>.0004657</ECCENTRICITY><INCLINATION>44.9931</INCLINATION><RA_OF_ASC_NODE>63.8141</RA_OF_ASC_NODE><ARG_OF_PERICENTER>302.8876</ARG_OF_PERICENTER><MEAN_ANOMALY>57.1524</MEAN_ANOMALY></meanElements><tleParameters><EPHEMERIS_TYPE>0</EPHEMERIS_TYPE><CLASSIFICATION_TYPE>U</CLASSIFICATION_TYPE><NORAD_CAT_ID>25414</NORAD_CAT_ID><ELEMENT_SET_NO>999</ELEMENT_SET_NO><REV_AT_EPOCH>37484</REV_AT_EPOCH><BSTAR>.13226E-2</BSTAR><MEAN_MOTION_DOT>.3847E-4</MEAN_MOTION_DOT><MEAN_MOTION_DDOT>0</MEAN_MOTION_DDOT></tleParameters></data></segment></body></omm>
<omm id="CCSDS_OMM_VERS" version="2.0">
<header><CREATION_DATE/><ORIGINATOR/></header><body><segment><metadata><OBJECT_NAME>ORBCOMM FM19</OBJECT_NAME><OBJECT_ID>1998-046C</OBJECT_ID><CENTER_NAME>EARTH</CENTER_NAME><REF_FRAME>TEME</REF_FRAME><TIME_SYSTEM>UTC</TIME_SYSTEM><MEAN_ELEMENT_THEORY>SGP4</MEAN_ELEMENT_THEORY></metadata><data><meanElements><EPOCH>2024-11-24T21:47:12.183360</EPOCH><MEAN_MOTION>14.37203514</MEAN_MOTION><ECCENTRICITY>.0003901</ECCENTRICITY><INCLINATION>44.9943</INCLINATION><RA_OF_ASC_NODE>65.4505</RA_OF_ASC_NODE><ARG_OF_PERICENTER>289.6749</ARG_OF_PERICENTER><MEAN_ANOMALY>177.5272</MEAN_ANOMALY></meanElements><tleParameters><EPHEMERIS_TYPE>0</EPHEMERIS_TYPE><CLASSIFICATION_TYPE>U</CLASSIFICATION_TYPE><NORAD_CAT_ID>25415</NORAD_CAT_ID><ELEMENT_SET_NO>999</ELEMENT_SET_NO><REV_AT_EPOCH>37480</REV_AT_EPOCH><BSTAR>.13425E-2</BSTAR><MEAN_MOTION_DOT>.3893E-4</MEAN_MOTION_DOT><MEAN_MOTION_DDOT>0</MEAN_MOTION_DDOT></tleParameters></data></segment></body></omm>

</ndm>
